NORAD_CAT_ID,OBJECT_NAME,OBJECT_TYPE,EPOCH,MEAN_MOTION,ECCENTRICITY,INCLINATION,RA_OF_ASC_NODE,ARG_OF_PERICENTER,MEAN_ANOMALY,BSTAR,MEAN_MOTION_DOT,MEAN_MOTION_DDOT,TLE_LINE0,TLE_LINE1,TLE_LINE2,SEMIMAJOR_AXIS,PERIOD,APOGEE,PERIGEE,DECAYED
52693.0,STARLINK-3946,PAYLOAD,2023-08-14 05:07:56,15.08838671,9.75e-05,53.2167,37.101,106.5131,253.5969,-9.5932e-07,-3.03e-06,0.0,0 STARLINK-3946,1 52693U 22053AP  23226.21385372 -.00000303  00000-0 -95932-6 0  9995,2 52693  53.2167  37.1010 0000975 106.5131 253.5969 15.08838671 69079,6917.884,95.438,540.424,539.075,0.0
52693.0,STARLINK-3946,PAYLOAD,2023-08-14 22:37:10,15.08846564,0.0001274,53.216,33.8326,92.0004,268.1134,4.1654e-05,3.75e-06,0.0,0 STARLINK-3946,1 52693U 22053AP  23226.94248833  .00000375  00000-0  41654-4 0  9992,2 52693  53.2160  33.8326 0001274  92.0004 268.1134 15.08846564 69184,6917.86,95.437,540.607,538.844,0.0
52693.0,STARLINK-3946,PAYLOAD,2023-08-15 17:41:48,15.08838976,0.0001056,53.217,30.2624,92.8724,267.2389,9.8571e-05,1.281e-05,0.0,0 STARLINK-3946,1 52693U 22053AP  23227.73737232  .00001281  00000-0  98571-4 0  9993,2 52693  53.2170  30.2624 0001056  92.8724 267.2389 15.08838976 69306,6917.884,95.438,540.479,539.018,0.0
52693.0,STARLINK-3946,PAYLOAD,2023-08-17 11:01:51,15.08823821,9.17e-05,53.217,22.533,99.3289,260.7807,0.00021729,3.171e-05,0.0,0 STARLINK-3946,1 52693U 22053AP  23229.45962226  .00003171  00000-0  21729-3 0  9997,2 52693  53.2170  22.5330 0000917  99.3289 260.7807 15.08823821 69561,6917.93,95.439,540.429,539.16,0.0
52693.0,STARLINK-3946,PAYLOAD,2023-08-17 17:23:22,15.08843889,7.2e-05,53.221,21.3454,101.2135,258.8938,6.8648e-05,8.05e-06,0.0,0 STARLINK-3946,1 52693U 22053AP  23229.72457174  .00000805  00000-0  68648-4 0  9991,2 52693  53.2210  21.3454 0000720 101.2135 258.8938 15.08843889 69609,6917.869,95.437,540.232,539.235,0.0
52693.0,STARLINK-3946,PAYLOAD,2023-08-18 10:52:38,15.08836091,9.54e-05,53.2243,18.0752,86.5615,273.5486,1.9351e-05,2e-07,0.0,0 STARLINK-3946,1 52693U 22053AP  23230.45322027  .00000020  00000-0  19351-4 0  9997,2 52693  53.2243  18.0752 0000954  86.5615 273.5486 15.08836091 69717,6917.892,95.438,540.417,539.097,0.0
52693.0,STARLINK-3946,PAYLOAD,2023-08-19 18:40:20,15.08851611,0.0001146,53.2167,12.1236,74.6044,285.5075,-0.00011172,-2.066e-05,0.0,0 STARLINK-3946,1 52693U 22053AP  23231.77801650 -.00002066  00000-0 -11172-3 0  9993,2 52693  53.2167  12.1236 0001146  74.6044 285.5075 15.08851611 69916,6917.845,95.437,540.503,538.917,0.0
52693.0,STARLINK-3946,PAYLOAD,2023-08-20 08:58:49,15.08833082,0.0001087,53.2167,9.4474,73.7434,286.3677,0.00016544,2.346e-05,0.0,0 STARLINK-3946,1 52693U 22053AP  23232.37418151  .00002346  00000-0  16544-3 0  9997,2 52693  53.2167   9.4474 0001087  73.7434 286.3677 15.08833082 70007,6917.902,95.438,540.519,539.015,0.0
52693.0,STARLINK-3946,PAYLOAD,2023-08-21 02:28:03,15.08842194,0.0001051,53.2191,6.1785,79.4036,280.7075,0.0001152,1.546e-05,0.0,0 STARLINK-3946,1 52693U 22053AP  23233.10281705  .00001546  00000-0  11520-3 0  9992,2 52693  53.2191   6.1785 0001051  79.4036 280.7075 15.08842194 70111,6917.874,95.437,540.466,539.012,0.0
52693.0,STARLINK-3946,PAYLOAD,2023-08-22 08:40:23,15.08841202,0.0001148,53.2194,0.5298,93.3808,266.7315,-2.2143e-07,-2.91e-06,0.0,0 STARLINK-3946,1 52693U 22053AP  23234.36138115 -.00000291  00000-0 -22143-6 0  9991,2 52693  53.2194   0.5298 0001148  93.3808 266.7315 15.08841202 70301,6917.877,95.437,540.536,538.948,0.0
52693.0,STARLINK-3946,PAYLOAD,2023-08-23 11:41:56,15.08839368,0.0001247,53.2186,355.4736,90.777,269.3365,4.1323e-05,3.7e-06,0.0,0 STARLINK-3946,1 52693U 22053AP  23235.48746059  .00000370  00000-0  41323-4 0  9992,2 52693  53.2186 355.4736 0001247  90.7770 269.3365 15.08839368 70472,6917.882,95.438,540.61,538.885,0.0
52693.0,STARLINK-3946,PAYLOAD,2023-08-24 11:32:43,15.08837356,0.0001271,53.2194,351.0147,107.7868,252.3263,5.3749e-05,5.68e-06,0.0,0 STARLINK-3946,1 52693U 22053AP  23236.48106235  .00000568  00000-0  53749-4 0  9993,2 52693  53.2194 351.0147 0001271 107.7868 252.3263 15.08837356 71029,6917.888,95.438,540.633,538.874,0.0
52693.0,STARLINK-3946,PAYLOAD,2023-08-25 12:58:53,15.08840262,0.0001238,53.2191,346.2579,104.8569,255.2561,5.0243e-05,5.12e-06,0.0,0 STARLINK-3946,1 52693U 22053AP  23237.54090191  .00000512  00000-0  50243-4 0  9999,2 52693  53.2191 346.2579 0001238 104.8569 255.2561 15.08840262 71180,6917.88,95.438,540.601,538.888,0.0
52693.0,STARLINK-3946,PAYLOAD,2023-08-25 17:45:03,15.08812307,0.0001323,53.2184,345.3627,92.4338,267.6805,0.00050206,7.705e-05,0.0,0 STARLINK-3946,1 52693U 22053AP  23237.73962698  .00007705  00000-0  50206-3 0  9999,2 52693  53.2184 345.3627 0001323  92.4338 267.6805 15.08812307 70813,6917.965,95.439,540.745,538.915,0.0
52693.0,STARLINK-3946,PAYLOAD,2023-08-26 11:14:18,15.08837476,0.0001424,53.2176,342.0916,91.1314,268.9841,2.2507e-05,7e-07,0.0,0 STARLINK-3946,1 52693U 22053AP  23238.46826713  .00000070  00000-0  22507-4 0  9999,2 52693  53.2176 342.0916 0001424  91.1314 268.9841 15.08837476 71326,6917.888,95.438,540.738,538.768,0.0
52693.0,STARLINK-3946,PAYLOAD,2023-08-26 16:00:27,15.08838326,0.0001429,53.2179,341.2,90.187,269.9286,2.5781e-05,1.22e-06,0.0,0 STARLINK-3946,1 52693U 22053AP  23238.66698689  .00000122  00000-0  25781-4 0  9995,2 52693  53.2179 341.2000 0001429  90.1870 269.9286 15.08838326 70952,6917.886,95.438,540.739,538.762,0.0
52693.0,STARLINK-3946,PAYLOAD,2023-08-27 15:51:14,15.08845016,0.0001201,53.2185,336.7379,88.257,271.856,5.7603e-05,6.29e-06,0.0,0 STARLINK-3946,1 52693U 22053AP  23239.66058218  .00000629  00000-0  57603-4 0  9994,2 52693  53.2185 336.7379 0001201  88.2570 271.8560 15.08845016 71503,6917.865,95.437,540.561,538.899,0.0
52693.0,STARLINK-3946,PAYLOAD,2023-08-28 06:09:43,15.08832401,0.0001524,53.2192,334.064,96.0416,264.075,4.9377e-05,4.98e-06,0.0,0 STARLINK-3946,1 52693U 22053AP  23240.25675230  .00000498  00000-0  49377-4 0  9993,2 52693  53.2192 334.0640 0001524  96.0416 264.0750 15.08832401 71191,6917.904,95.438,540.823,538.714,0.0
52693.0,STARLINK-3946,PAYLOAD,2023-08-28 14:06:38,15.08840018,0.0001403,53.2185,332.5762,100.4459,259.6692,4.4721e-05,4.24e-06,0.0,0 STARLINK-3946,1 52693U 22053AP  23240.58794782  .00000424  00000-0  44721-4 0  9990,2 52693  53.2185 332.5762 0001403 100.4459 259.6692 15.08840018 71248,6917.88,95.438,540.716,538.775,0.0
52693.0,STARLINK-3946,PAYLOAD,2023-08-29 13:57:25,15.08848585,0.0001277,53.218,328.1161,90.2877,269.8262,7.0439e-05,8.34e-06,0.0,0 STARLINK-3946,1 52693U 22053AP  23241.58154171  .00000834  00000-0  70439-4 0  9993,2 52693  53.2180 328.1161 0001277  90.2877 269.8262 15.08848585 71395,6917.854,95.437,540.603,538.836,0.0
52693.0,STARLINK-3946,PAYLOAD,2023-08-30 05:51:17,15.08837406,0.0001372,53.2178,325.1415,95.7673,264.3476,2.2703e-05,7.3e-07,0.0,0 STARLINK-3946,1 52693U 22053AP  23242.24395031  .00000073  00000-0  22703-4 0  9995,2 52693  53.2178 325.1415 0001372  95.7673 264.3476 15.08837406 71499,6917.888,95.438,540.702,538.804,0.0
52693.0,STARLINK-3946,PAYLOAD,2023-08-30 13:48:12,15.08839652,0.0001391,53.2179,323.6548,105.484,254.6306,3.4757e-05,2.65e-06,0.0,0 STARLINK-3946,1 52693U 22053AP  23242.57514826  .00000265  00000-0  34757-4 0  9991,2 52693  53.2179 323.6548 0001391 105.4840 254.6306 15.08839652 71945,6917.881,95.438,540.709,538.784,0.0
52693.0,STARLINK-3946,PAYLOAD,2023-08-31 13:38:59,15.0884345,0.0001254,53.218,319.1944,94.2723,265.8413,-3.8611e-06,-3.49e-06,0.0,0 STARLINK-3946,1 52693U 22053AP  23243.56874657 -.00000349  00000-0 -38611-5 0  9991,2 52693  53.2180 319.1944 0001254  94.2723 265.8413 15.08843450 71696,6917.87,95.437,540.602,538.867,0.0
52693.0,STARLINK-3946,PAYLOAD,2023-09-01 11:54:23,15.08834737,0.0001205,53.2177,315.0329,92.4747,267.6383,7.45e-05,8.98e-06,0.0,0 STARLINK-3946,1 52693U 22053AP  23244.49611106  .00000898  00000-0  74500-4 0  9995,2 52693  53.2177 315.0329 0001205  92.4747 267.6383 15.08834737 72231,6917.896,95.438,540.595,538.928,0.0
52693.0,STARLINK-3946,PAYLOAD,2023-09-01 15:05:09,15.08841829,0.0001416,53.218,314.4368,101.891,258.2241,4.9316e-05,4.97e-06,0.0,0 STARLINK-3946,1 52693U 22053AP  23244.62858700  .00000497  00000-0  49316-4 0  9995,2 52693  53.2180 314.4368 0001416 101.8910 258.2241 15.08841829 71858,6917.875,95.437,540.719,538.76,0.0
52693.0,STARLINK-3946,PAYLOAD,2023-09-02 11:45:11,15.08838322,0.0001594,53.2166,310.5721,92.3751,267.7424,5.0328e-05,5.13e-06,0.0,0 STARLINK-3946,1 52693U 22053AP  23245.48971077  .00000513  00000-0  50328-4 0  9997,2 52693  53.2166 310.5721 0001594  92.3751 267.7424 15.08838322 72387,6917.886,95.438,540.853,538.648,0.0
52693.0,STARLINK-3946,PAYLOAD,2023-09-02 21:17:29,15.08839713,0.0001592,53.217,308.7879,88.9907,271.1268,5.6307e-05,6.08e-06,0.0,0 STARLINK-3946,1 52693U 22053AP  23245.88715032  .00000608  00000-0  56307-4 0  9996,2 52693  53.2170 308.7879 0001592  88.9907 271.1268 15.08839713 72444,6917.881,95.438,540.848,538.645,0.0
52693.0,STARLINK-3946,PAYLOAD,2023-09-03 08:25:11,15.08844992,0.0001513,53.2169,306.7063,89.7734,270.3432,7.7491e-05,9.46e-06,0.0,0 STARLINK-3946,1 52693U 22053AP  23246.35082593  .00000946  00000-0  77491-4 0  9990,2 52693  53.2169 306.7063 0001513  89.7734 270.3432 15.08844992 72512,6917.865,95.437,540.777,538.683,0.0
52693.0,STARLINK-3946,PAYLOAD,2023-09-03 16:22:06,15.08855269,0.0001501,53.2178,305.2196,88.512,271.6044,0.00010843,1.439e-05,0.0,0 STARLINK-3946,1 52693U 22053AP  23246.68201737  .00001439  00000-0  10843-3 0  9994,2 52693  53.2178 305.2196 0001501  88.5120 271.6044 15.08855269 72169,6917.834,95.437,540.737,538.66,0.0
52693.0,STARLINK-3946,PAYLOAD,2023-09-03 21:08:17,15.08827447,0.0002056,53.2176,304.3277,80.1851,279.9373,-7.3495e-05,-1.457e-05,0.0,0 STARLINK-3946,1 52693U 22053AP  23246.88076205 -.00001457  00000-0 -73495-4 0  9991,2 52693  53.2176 304.3277 0002056  80.1851 279.9373 15.08827447 72198,6917.919,95.438,541.206,538.361,0.0
